[ {
  "OBJECT_ID": "1987-018A",
  "OBJECT_NAME": "MOS 1A (MOMO 1)",
  "NORAD_CAT_ID": "17527",
  "OBJECT_TYPE": "PAYLOAD",
  "PERIOD": "102.676",
  "INCLINATION": "99.2711",
  "APOGEE": "891.679",
  "PERIGEE": "878.904",
  "ECCENTRICITY": "0.0008794",
  "MEAN_MOTION": "14.02459629",
  "TLE_LINE1": "1 17527U 87018A   16238.94891598 +.00000322 +00000-0 +23972-3 0  9992",
  "TLE_LINE2": "2 17527 099.2711 242.1005 0008794 028.1956 001.5949 14.02459629507862",
  "LAUNCH_DATE": "1987-02-19",
  "LAUNCH_SITE": "TANEGASHIMA SPACE CENTER",
  "OWNER": "JAPAN",
  "ORBIT_TYPE": "Low Earth Orbit",
  "OPERATIONAL_STATUS": "Nonoperational"
}, {
  "OBJECT_ID": "1987-053A",
  "OBJECT_NAME": "DMSP 5D-2 F8 (USA 26)",
  "NORAD_CAT_ID": "18123",
  "OBJECT_TYPE": "PAYLOAD",
  "PERIOD": "101.514",
  "INCLINATION": "98.7389",
  "APOGEE": "840.436",
  "PERIGEE": "820.348",
  "ECCENTRICITY": "0.0013934",
  "MEAN_MOTION": "14.1851169",
  "TLE_LINE1": "1 18123U 87053A   16239.54368552  .00000024  00000-0  32683-4 0  9999",
  "TLE_LINE2": "2 18123  98.7389  67.8436 0013934  22.6502 337.5286 14.18511690509152",
  "LAUNCH_DATE": "1987-06-20",
  "LAUNCH_SITE": "AIR FORCE WESTERN TEST RANGE",
  "OWNER": "UNITED STATES OF AMERICA",
  "ORBIT_TYPE": "Low Earth Orbit",
  "OPERATIONAL_STATUS": "Nonoperational"
}, {
  "OBJECT_ID": "1988-006A",
  "OBJECT_NAME": "DMSP 5D-2 F9 (USA 29)",
  "NORAD_CAT_ID": "18822",
  "OBJECT_TYPE": "PAYLOAD",
  "PERIOD": "100.904",
  "INCLINATION": "98.6588",
  "APOGEE": "806.268",
  "PERIGEE": "796.653",
  "ECCENTRICITY": "0.0006696",
  "MEAN_MOTION": "14.27094529",
  "TLE_LINE1": "1 18822U 88006A   16239.51980724  .00000018  00000-0  25491-4 0  9994",
  "TLE_LINE2": "2 18822  98.6588 115.5824 0006696 150.0426 210.1139 14.27094529485285",
  "LAUNCH_DATE": "1988-02-03",
  "LAUNCH_SITE": "AIR FORCE WESTERN TEST RANGE",
  "OWNER": "UNITED STATES OF AMERICA",
  "ORBIT_TYPE": "Low Earth Orbit",
  "OPERATIONAL_STATUS": "Nonoperational"
}, {
  "OBJECT_ID": "1988-021A",
  "OBJECT_NAME": "IRS 1A",
  "NORAD_CAT_ID": "18960",
  "OBJECT_TYPE": "PAYLOAD",
  "PERIOD": "103.097",
  "INCLINATION": "99.314",
  "APOGEE": "915.056",
  "PERIGEE": "895.224",
  "ECCENTRICITY": "0.0013615",
  "MEAN_MOTION": "13.96730631",
  "TLE_LINE1": "1 18960U 88021A   16239.24362916 -.00000187  00000-0 -10120-3 0  9992",
  "TLE_LINE2": "2 18960  99.3140 286.7256 0013615 311.4676  98.3193 13.96730631353375",
  "LAUNCH_DATE": "1988-03-17",
  "LAUNCH_SITE": "TYURATAM MISSILE AND SPACE COMPLEX",
  "OWNER": "INDIA",
  "ORBIT_TYPE": "Low Earth Orbit",
  "OPERATIONAL_STATUS": "Nonoperational"
}, {
  "OBJECT_ID": "1988-080A",
  "OBJECT_NAME": "FENGYUN 1A",
  "NORAD_CAT_ID": "19467",
  "OBJECT_TYPE": "PAYLOAD",
  "PERIOD": "102.634",
  "INCLINATION": "99.1233",
  "APOGEE": "893.809",
  "PERIGEE": "872.794",
  "ECCENTRICITY": "0.001447",
  "MEAN_MOTION": "14.03036248",
  "TLE_LINE1": "1 19467U 88080A   16239.49389750  .00000158  00000-0  13084-3 0  9990",
  "TLE_LINE2": "2 19467  99.1233 207.7078 0014470 153.3071 206.8843 14.03036248431799",
  "LAUNCH_DATE": "1988-09-06",
  "LAUNCH_SITE": "Taiyaun Space Center, China",
  "OWNER": "PEOPLES REPUBLIC OF CHINA",
  "ORBIT_TYPE": "Low Earth Orbit",
  "OPERATIONAL_STATUS": "Nonoperational"
}, {
  "OBJECT_ID": "1988-089A",
  "OBJECT_NAME": "NOAA 11",
  "NORAD_CAT_ID": "19531",
  "OBJECT_TYPE": "PAYLOAD",
  "PERIOD": "101.752",
  "INCLINATION": "98.596",
  "APOGEE": "850.063",
  "PERIGEE": "833.256",
  "ECCENTRICITY": "0.001164",
  "MEAN_MOTION": "14.15192309",
  "TLE_LINE1": "1 19531U 88089A   16239.29805609 -.00000025  00000-0  86347-5 0  9993",
  "TLE_LINE2": "2 19531  98.5960 303.1680 0011640 159.1323 201.0328 14.15192309441049",
  "LAUNCH_DATE": "1988-09-24",
  "LAUNCH_SITE": "AIR FORCE WESTERN TEST RANGE",
  "OWNER": "UNITED STATES OF AMERICA",
  "ORBIT_TYPE": "Low Earth Orbit",
  "OPERATIONAL_STATUS": "Nonoperational"
}, {
  "OBJECT_ID": "1989-050A",
  "OBJECT_NAME": "NADEZHDA 1",
  "NORAD_CAT_ID": "20103",
  "OBJECT_TYPE": "PAYLOAD",
  "PERIOD": "104.762",
  "INCLINATION": "82.9579",
  "APOGEE": "1011.326",
  "PERIGEE": "955.354",
  "ECCENTRICITY": "0.0038017",
  "MEAN_MOTION": "13.74533847",
  "TLE_LINE1": "1 20103U 89050A   16238.92145366 +.00000050 +00000-0 +36216-4 0  9991",
  "TLE_LINE2": "2 20103 082.9579 066.7735 0038017 021.2584 088.9500 13.74533847361299",
  "LAUNCH_DATE": "1989-07-04",
  "LAUNCH_SITE": "PLESETSK MISSILE AND SPACE COMPLEX",
  "OWNER": "COMMONWEALTH OF INDEPENDENT STATES",
  "ORBIT_TYPE": "Low Earth Orbit",
  "OPERATIONAL_STATUS": "Nonoperational"
}, {
  "OBJECT_ID": "1990-005A",
  "OBJECT_NAME": "SPOT 2",
  "NORAD_CAT_ID": "20436",
  "OBJECT_TYPE": "PAYLOAD",
  "PERIOD": "98.223",
  "INCLINATION": "98.6664",
  "APOGEE": "777.393",
  "PERIGEE": "570.079",
  "ECCENTRICITY": "0.0146992",
  "MEAN_MOTION": "14.66041108",
  "TLE_LINE1": "1 20436U 90005A   16239.50551753  .00000191  00000-0  39450-4 0  9997",
  "TLE_LINE2": "2 20436  98.6664 125.7332 0146992  92.4180 269.3862 14.66041108389865",
  "LAUNCH_DATE": "1990-01-22",
  "LAUNCH_SITE": "FRENCH GUIANA",
  "OWNER": "FRANCE",
  "ORBIT_TYPE": "Low Earth Orbit",
  "OPERATIONAL_STATUS": "Nonoperational"
}, {
  "OBJECT_ID": "1990-005B",
  "OBJECT_NAME": "OSCAR 14 (UOSAT 3)",
  "NORAD_CAT_ID": "20437",
  "OBJECT_TYPE": "PAYLOAD",
  "PERIOD": "100.542",
  "INCLINATION": "98.6233",
  "APOGEE": "791.541",
  "PERIGEE": "777.068",
  "ECCENTRICITY": "0.0010103",
  "MEAN_MOTION": "14.32225095",
  "TLE_LINE1": "1 20437U 90005B   16239.44730074 -.00000000  00000-0  16383-4 0  9996",
  "TLE_LINE2": "2 20437  98.6233 178.3296 0010103 331.3331 140.5060 14.32225095389017",
  "LAUNCH_DATE": "1990-01-22",
  "LAUNCH_SITE": "FRENCH GUIANA",
  "OWNER": "UNITED KINGDOM",
  "ORBIT_TYPE": "Low Earth Orbit",
  "OPERATIONAL_STATUS": "Nonoperational"
}, {
  "OBJECT_ID": "1990-005C",
  "OBJECT_NAME": "OSCAR 15 (UOSAT 4)",
  "NORAD_CAT_ID": "20438",
  "OBJECT_TYPE": "PAYLOAD",
  "PERIOD": "100.631",
  "INCLINATION": "98.672",
  "APOGEE": "795.989",
  "PERIGEE": "781.024",
  "ECCENTRICITY": "0.0010441",
  "MEAN_MOTION": "14.30965541",
  "TLE_LINE1": "1 20438U 90005C   16239.49646963 -.00000008  00000-0  13776-4 0  9996",
  "TLE_LINE2": "2 20438  98.6720 181.0978 0010441  25.7118  93.6656 14.30965541388135",
  "LAUNCH_DATE": "1990-01-22",
  "LAUNCH_SITE": "FRENCH GUIANA",
  "OWNER": "UNITED KINGDOM",
  "ORBIT_TYPE": "Low Earth Orbit",
  "OPERATIONAL_STATUS": "Nonoperational"
}, {
  "OBJECT_ID": "1990-005D",
  "OBJECT_NAME": "OSCAR 16 (PACSAT)",
  "NORAD_CAT_ID": "20439",
  "OBJECT_TYPE": "PAYLOAD",
  "PERIOD": "100.513",
  "INCLINATION": "98.5763",
  "APOGEE": "790.117",
  "PERIGEE": "775.708",
  "ECCENTRICITY": "0.0010061",
  "MEAN_MOTION": "14.32642713",
  "TLE_LINE1": "1 20439U 90005D   16239.38991464  .00000011  00000-0  20237-4 0  9997",
  "TLE_LINE2": "2 20439  98.5763 175.1654 0010061 317.7098 154.5848 14.32642713389198",
  "LAUNCH_DATE": "1990-01-22",
  "LAUNCH_SITE": "FRENCH GUIANA",
  "OWNER": "UNITED STATES OF AMERICA",
  "ORBIT_TYPE": "Low Earth Orbit",
  "OPERATIONAL_STATUS": "Nonoperational"
}, {
  "OBJECT_ID": "1990-005E",
  "OBJECT_NAME": "OSCAR 17 (DOVE)",
  "NORAD_CAT_ID": "20440",
  "OBJECT_TYPE": "PAYLOAD",
  "PERIOD": "100.486",
  "INCLINATION": "98.5571",
  "APOGEE": "788.694",
  "PERIGEE": "774.527",
  "ECCENTRICITY": "0.0009893",
  "MEAN_MOTION": "14.33033495",
  "TLE_LINE1": "1 20440U 90005E   16238.89708679 +.00000029 +00000-0 +26606-4 0  9993",
  "TLE_LINE2": "2 20440 098.5571 174.1827 0009893 304.0725 101.7184 14.33033495389127",
  "LAUNCH_DATE": "1990-01-22",
  "LAUNCH_SITE": "FRENCH GUIANA",
  "OWNER": "BRAZIL",
  "ORBIT_TYPE": "Low Earth Orbit",
  "OPERATIONAL_STATUS": "Nonoperational"
}, {
  "OBJECT_ID": "1990-005F",
  "OBJECT_NAME": "OSCAR 18 (WEBERSAT)",
  "NORAD_CAT_ID": "20441",
  "OBJECT_TYPE": "PAYLOAD",
  "PERIOD": "100.510",
  "INCLINATION": "98.5603",
  "APOGEE": "790.373",
  "PERIGEE": "775.133",
  "ECCENTRICITY": "0.0010641",
  "MEAN_MOTION": "14.32690561",
  "TLE_LINE1": "1 20441U 90005F   16238.78416348 +.00000017 +00000-0 +22479-4 0  9992",
  "TLE_LINE2": "2 20441 098.5603 173.3944 0010641 313.5784 098.6674 14.32690561388969",
  "LAUNCH_DATE": "1990-01-22",
  "LAUNCH_SITE": "FRENCH GUIANA",
  "OWNER": "UNITED STATES OF AMERICA",
  "ORBIT_TYPE": "Low Earth Orbit",
  "OPERATIONAL_STATUS": "Nonoperational"
}, {
  "OBJECT_ID": "1990-013A",
  "OBJECT_NAME": "MOS 1B (MOMO 1B)",
  "NORAD_CAT_ID": "20478",
  "OBJECT_TYPE": "PAYLOAD",
  "PERIOD": "103.196",
  "INCLINATION": "99.2484",
  "APOGEE": "913.658",
  "PERIGEE": "905.876",
  "ECCENTRICITY": "0.0005339",
  "MEAN_MOTION": "13.95400655",
  "TLE_LINE1": "1 20478U 90013A   16238.92607619 -.00000128 +00000-0 -61080-4 0  9996",
  "TLE_LINE2": "2 20478 099.2484 195.0197 0005339 174.1066 222.7378 13.95400655272354",
  "LAUNCH_DATE": "1990-02-07",
  "LAUNCH_SITE": "TANEGASHIMA SPACE CENTER",
  "OWNER": "JAPAN",
  "ORBIT_TYPE": "Low Earth Orbit",
  "OPERATIONAL_STATUS": "Nonoperational"
}, {
  "OBJECT_ID": "1990-013C",
  "OBJECT_NAME": "JAS 1B (FUJI 2)",
  "NORAD_CAT_ID": "20480",
  "OBJECT_TYPE": "PAYLOAD",
  "PERIOD": "112.200",
  "INCLINATION": "99.0216",
  "APOGEE": "1743.898",
  "PERIGEE": "911.669",
  "ECCENTRICITY": "0.0539993",
  "MEAN_MOTION": "12.83412007",
  "TLE_LINE1": "1 20480U 90013C   16238.80973711 -.00000033  00000-0  27941-5 0  9998",
  "TLE_LINE2": "2 20480  99.0216  61.8131 0539993 340.5306  83.5533 12.83412007243837",
  "LAUNCH_DATE": "1990-02-07",
  "LAUNCH_SITE": "TANEGASHIMA SPACE CENTER",
  "OWNER": "JAPAN",
  "ORBIT_TYPE": "Low Earth Orbit",
  "OPERATIONAL_STATUS": "Nonoperational"
}]